KUZGTU 1 (RS47S)        
1 57217U 23091AV  26171.43523323  .00009496  00000+0  32966-3 0  9995
2 57217  97.5059 235.9484 0012235  88.0892 272.1750 15.29921794164871
SONATE-2                
1 59112U 24043Q   26171.41218347  .00036201  00000+0  46629-3 0  9999
2 59112  97.5542 322.0062 0007216 184.8807 175.2380 15.58929844128393
MESAT1                  
1 60209U 24125G   26171.05066676  .00049535  00000+0  53419-3 0  9994
2 60209  97.2284  28.5983 0009832 192.9282 167.1727 15.63472773110010
OOV-CUBE (TUBSAT-30)    
1 60240U 24128F   26171.44894970  .00001277  00000+0  10887-3 0  9994
2 60240  61.9929 214.1994 0044227 134.4761 225.9960 15.02783719106604
COLIBRI-S (RS67S)       
1 61746U 24199M   26171.42368146  .00018492  00000+0  35702-3 0  9993
2 61746  97.2989  45.3069 0006297 262.7085  97.3450 15.47837273137917
HORS 3 (RS81S)          
1 61753U 24199U   26171.43560999  .00031554  00000+0  46807-3 0  9994
2 61753  97.2969  47.3410 0003799 258.6901 101.3927 15.55165366138068
HORS 4 (RS82S)          
1 61754U 24199V   26171.45049354  .00043608  00000+0  54030-3 0  9994
2 61754  97.2915  48.5786 0003432 238.4602 121.6320 15.59942914138155
SIT-2086                
1 61764U 24199AF  26171.41780133  .00031504  00000+0  50030-3 0  9996
2 61764  97.2928  47.7879 0004905 234.4674 125.6123 15.53279196134931
HYPERVIEW 1G (RS66S)    
1 61772U 24199AP  26171.11001400  .00125192  00000+0  78003-3 0  9992
2 61772  97.2851  50.9798 0004715 207.8229 152.2786 15.76549631135133
ALTAIR (RS65S)          
1 61779U 24199AW  26171.43221843  .00007443  00000+0  20710-3 0  9999
2 61779  97.3024  40.7613 0010884 297.7686  62.2454 15.37065018137611
ASRTU-1 (AO-123)        
1 61781U 24199AY  26171.42296523  .00006434  00000+0  18716-3 0  9990
2 61781  97.2995  40.0642 0012089 300.9779  59.0277 15.35714948134428
SAMSAT-IONOSPHERE (RS7*)
1 61784U 24199BB  26171.39980315  .00041170  00000+0  55142-3 0  9998
2 61784  97.2937  47.3627 0005975 259.6998 100.3584 15.57868475138063
RTU MIREA 1 (RS51S)     
1 61785U 24199BC  26171.41703499  .00049518  00000+0  57966-3 0  9998
2 61785  97.2926  48.2288 0005765 250.5796 109.4839 15.61392673134974
TEVEL2-4                
1 63213U 25052D   26171.44236345  .00016057  00000+0  47906-3 0  9994
2 63213  97.3895  67.8392 0004959  96.9497 263.2310 15.34707854 70619
TEVEL2-5                
1 63214U 25052E   26171.26760575  .00015978  00000+0  47945-3 0  9996
2 63214  97.3892  67.6107 0004895  98.9294 261.2503 15.34527610 70583
TEVEL2-6                
1 63215U 25052F   26171.28000723  .00015976  00000+0  47994-3 0  9993
2 63215  97.3898  67.6078 0004759  99.4633 260.7149 15.34492782 70580
TEVEL2-1                
1 63217U 25052H   26171.17964496  .00015594  00000+0  47659-3 0  9993
2 63217  97.3873  67.1285 0004873 107.5627 252.6148 15.33952529 70556
TEVEL2-3                
1 63218U 25052J   26171.43510259  .00015215  00000+0  46415-3 0  9996
2 63218  97.3872  67.4058 0004851 107.4306 252.7467 15.34015837 70598
TEVEL2-2                
1 63219U 25052K   26171.44087273  .00015148  00000+0  46281-3 0  9999
2 63219  97.3872  67.3917 0004899 108.0209 252.1568 15.33968526 70590
TEVEL2-9                
1 63237U 25052AD  26171.42250345  .00013890  00000+0  45158-3 0  9993
2 63237  97.3932  66.7416 0008057 121.8629 238.3398 15.31981442 70523
TEVEL2-7                
1 63238U 25052AE  26171.20271571  .00013367  00000+0  43885-3 0  9998
2 63238  97.3934  66.4373 0008076 122.8867 237.3153 15.31676701 70483
TEVEL2-8                
1 63239U 25052AF  26170.68834909  .00012538  00000+0  41221-3 0  9991
2 63239  97.3937  65.9009 0008075 124.5955 235.6049 15.31647647 70407
INNOSAT 16 (RS92S7)     
1 64878U 25155C   26171.41302090  .00004643  00000+0  18603-3 0  9994
2 64878  97.4567 138.5303 0010935 164.3854 195.7723 15.25485147 81167
GEOSCAN 6 (RS92S6)      
1 64879U 25155D   26171.38588257  .00008661  00000+0  29867-3 0  9990
2 64879  97.4559 139.9499 0008778 152.3078 207.8631 15.30202444 81253
GEOSCAN 1 (RS92S1)      
1 64880U 25155E   26171.38708490  .00009677  00000+0  32727-3 0  9992
2 64880  97.4556 140.1018 0008742 152.1627 208.0084 15.30802172 81262
239ALFEROV (RS61S)      
1 64881U 25155F   26171.41741150  .00012390  00000+0  39041-3 0  9999
2 64881  97.4557 140.7047 0008428 149.3276 210.8460 15.33013503 81300
GEOSCAN 2 (RS92S2)      
1 64890U 25155Q   26171.44555816  .00009240  00000+0  31002-3 0  9993
2 64890  97.4555 140.3144 0008430 139.9108 220.2756 15.31074417 81283
GEOSCAN 5 (RS92S5)      
1 64891U 25155R   26171.40576882  .00012543  00000+0  39142-3 0  9999
2 64891  97.4549 140.8317 0007168 152.8960 207.2658 15.33330132 81312
GEOSCAN 4 (RS92S4)      
1 64892U 25155S   26171.38963691  .00012558  00000+0  38997-3 0  9998
2 64892  97.4552 140.8647 0007255 152.3865 207.7764 15.33485322 81314
GEOSCAN 3 (RS92S3)      
1 64893U 25155T   26171.38624047  .00015526  00000+0  45188-3 0  9996
2 64893  97.4541 141.3003 0007202 150.8779 209.2867 15.35486190 81344
