OBJECT_NAME,OBJECT_ID,EPOCH,MEAN_MOTION,ECCENTRICITY,INCLINATION,RA_OF_ASC_NODE,ARG_OF_PERICENTER,MEAN_ANOMALY,EPHEMERIS_TYPE,CLASSIFICATION_TYPE,NORAD_CAT_ID,ELEMENT_SET_NO,REV_AT_EPOCH,BSTAR,MEAN_MOTION_DOT,MEAN_MOTION_DDOT
KUZGTU 1 (RS47S),2023-091AV,2026-06-20T10:26:44.151072,15.29921794,.0012235,97.5059,235.9484,88.0892,272.1750,0,U,57217,999,16487,.32966E-3,.9496E-4,0
SONATE-2,2024-043Q,2026-06-20T09:53:32.651808,15.58929844,.0007216,97.5542,322.0062,184.8807,175.2380,0,U,59112,999,12839,.46629E-3,.36201E-3,0
MESAT1,2024-125G,2026-06-20T01:12:57.608064,15.63472773,.00098321,97.2284,28.5983,192.9282,167.1727,0,U,60209,999,11001,.53418681E-3,.49535E-3,0
OOV-CUBE (TUBSAT-30),2024-128F,2026-06-20T10:46:29.254080,15.02783719,.0044227,61.9929,214.1994,134.4761,225.9960,0,U,60240,999,10660,.10887E-3,.1277E-4,0
COLIBRI-S (RS67S),2024-199M,2026-06-20T10:10:06.078144,15.47837273,.0006297,97.2989,45.3069,262.7085,97.3450,0,U,61746,999,13791,.35702E-3,.18492E-3,0
HORS 3 (RS81S),2024-199U,2026-06-20T10:27:16.703136,15.55165366,.0003799,97.2969,47.3410,258.6901,101.3927,0,U,61753,999,13806,.46807E-3,.31554E-3,0
HORS 4 (RS82S),2024-199V,2026-06-20T10:48:42.641856,15.59942914,.0003432,97.2915,48.5786,238.4602,121.6320,0,U,61754,999,13815,.5403E-3,.43608E-3,0
SIT-2086,2024-199AF,2026-06-20T10:01:38.034912,15.53279196,.0004905,97.2928,47.7879,234.4674,125.6123,0,U,61764,999,13493,.5003E-3,.31504E-3,0
HYPERVIEW 1G (RS66S),2024-199AP,2026-06-20T02:38:25.209600,15.76549631,.00047153,97.2851,50.9798,207.8229,152.2786,0,U,61772,999,13513,.78002634E-3,.125192E-2,0
ALTAIR (RS65S),2024-199AW,2026-06-20T10:22:23.672352,15.37065018,.0010884,97.3024,40.7613,297.7686,62.2454,0,U,61779,999,13761,.2071E-3,.7443E-4,0
ASRTU-1 (AO-123),2024-199AY,2026-06-20T10:09:04.195872,15.35714948,.0012089,97.2995,40.0642,300.9779,59.0277,0,U,61781,999,13442,.18716E-3,.6434E-4,0
SAMSAT-IONOSPHERE (RS75S),2024-199BB,2026-06-20T09:35:42.992160,15.57868475,.0005975,97.2937,47.3627,259.6998,100.3584,0,U,61784,999,13806,.55142E-3,.4117E-3,0
RTU MIREA 1 (RS51S),2024-199BC,2026-06-20T10:00:31.823136,15.61392673,.0005765,97.2926,48.2288,250.5796,109.4839,0,U,61785,999,13497,.57966E-3,.49518E-3,0
TEVEL2-4,2025-052D,2026-06-20T10:37:00.202080,15.34707854,.0004959,97.3895,67.8392,96.9497,263.2310,0,U,63213,999,7061,.47906E-3,.16057E-3,0
TEVEL2-5,2025-052E,2026-06-20T06:25:21.136800,15.34527610,.0004895,97.3892,67.6107,98.9294,261.2503,0,U,63214,999,7058,.47945E-3,.15978E-3,0
TEVEL2-6,2025-052F,2026-06-20T06:43:12.624672,15.34492782,.0004759,97.3898,67.6078,99.4633,260.7149,0,U,63215,999,7058,.47994E-3,.15976E-3,0
TEVEL2-1,2025-052H,2026-06-20T04:18:41.324544,15.33952529,.00048734,97.3873,67.1285,107.5627,252.6148,0,U,63217,999,7055,.47659428E-3,.15594E-3,0
TEVEL2-3,2025-052J,2026-06-20T10:26:32.863776,15.34015837,.0004851,97.3872,67.4058,107.4306,252.7467,0,U,63218,999,7059,.46415E-3,.15215E-3,0
TEVEL2-2,2025-052K,2026-06-20T10:34:51.403872,15.33968526,.0004899,97.3872,67.3917,108.0209,252.1568,0,U,63219,999,7059,.46281E-3,.15148E-3,0
TEVEL2-9,2025-052AD,2026-06-20T10:08:24.298080,15.31981442,.0008057,97.3932,66.7416,121.8629,238.3398,0,U,63237,999,7052,.45158E-3,.1389E-3,0
TEVEL2-7,2025-052AE,2026-06-20T04:51:54.637344,15.31676701,.0008076,97.3934,66.4373,122.8867,237.3153,0,U,63238,999,7048,.43885E-3,.13367E-3,0
TEVEL2-8,2025-052AF,2026-06-19T16:31:13.361376,15.31647647,.00080754,97.3937,65.9009,124.5955,235.6049,0,U,63239,999,7040,.41221495E-3,.12538E-3,0
INNOSAT 16 (RS92S7),2025-155C,2026-06-20T09:54:45.005760,15.25485147,.0010935,97.4567,138.5303,164.3854,195.7723,0,U,64878,999,8116,.18603E-3,.4643E-4,0
GEOSCAN 6 (RS92S6),2025-155D,2026-06-20T09:15:40.254048,15.30202444,.0008778,97.4559,139.9499,152.3078,207.8631,0,U,64879,999,8125,.29867E-3,.8661E-4,0
GEOSCAN 1 (RS92S1),2025-155E,2026-06-20T09:17:24.135360,15.30802172,.0008742,97.4556,140.1018,152.1627,208.0084,0,U,64880,999,8126,.32727E-3,.9677E-4,0
239ALFEROV (RS61S),2025-155F,2026-06-20T10:01:04.353600,15.33013503,.0008428,97.4557,140.7047,149.3276,210.8460,0,U,64881,999,8130,.39041E-3,.1239E-3,0
GEOSCAN 2 (RS92S2),2025-155Q,2026-06-20T10:41:36.225024,15.31074417,.000843,97.4555,140.3144,139.9108,220.2756,0,U,64890,999,8128,.31002E-3,.924E-4,0
GEOSCAN 5 (RS92S5),2025-155R,2026-06-20T09:44:18.426048,15.33330132,.0007168,97.4549,140.8317,152.8960,207.2658,0,U,64891,999,8131,.39142E-3,.12543E-3,0
GEOSCAN 4 (RS92S4),2025-155S,2026-06-20T09:21:04.629024,15.33485322,.0007255,97.4552,140.8647,152.3865,207.7764,0,U,64892,999,8131,.38997E-3,.12558E-3,0
GEOSCAN 3 (RS92S3),2025-155T,2026-06-20T09:16:11.176608,15.35486190,.0007202,97.4541,141.3003,150.8779,209.2867,0,U,64893,999,8134,.45188E-3,.15526E-3,0
